*******************************************************************************
Ephemeris / WWW_USER Fri Mar  7 10:39:22 2025 Pasadena, USA      / Horizons    
*******************************************************************************
Target body name: (2018 TC)                       {source: JPL#10}
Center body name: Earth (399)                     {source: DE441}
Center-site name: Mauna Kea
*******************************************************************************
Start time      : A.D. 2018-Oct-27 04:00:00.0000 UT      
Stop  time      : A.D. 2018-Oct-27 16:11:00.0000 UT      
Step-size       : 1 minutes
*******************************************************************************
Target pole/equ : undefined
Target radii    : undefined                                                    
Center geodetic : 204.5278, 19.8260847, 4.21024   {E-lon(deg),Lat(deg),Alt(km)}
Center cylindric: 204.5278, 6006.35451, 2151.0229 {E-lon(deg),Dxy(km),Dz(km)}
Center pole/equ : ITRF93                          {East-longitude positive}
Center radii    : 6378.137, 6378.137, 6356.752 km {Equator_a, b, pole_c}       
Target primary  : Sun
Vis. interferer : MOON (R_eq= 1737.400) km        {source: DE441}
Rel. light bend : Sun                             {source: DE441}
Rel. lght bnd GM: 1.3271E+11 km^3/s^2                                          
Small-body perts: Yes                             {source: SB441-N16}
Atmos refraction: NO (AIRLESS)
RA format       : HMS
Time format     : CAL 
Calendar mode   : Mixed Julian/Gregorian
RTS-only print  : NO       
EOP file        : eop.250306.p250602                                           
EOP coverage    : DATA-BASED 1962-JAN-20 TO 2025-MAR-06. PREDICTS-> 2025-JUN-01
Units conversion: 1 au= 149597870.700 km, c= 299792.458 km/s, 1 day= 86400.0 s 
Table cut-offs 1: Elevation (-90.0deg=NO ),Airmass (>38.000=NO), Daylight (YES)
Table cut-offs 2: Solar elongation (  0.0,180.0=NO ),Local Hour Angle( 0.0=NO )
Table cut-offs 3: RA/DEC angular rate (     0.0=NO )                           
*******************************************************************************
Initial IAU76/J2000 heliocentric ecliptic osculating elements (au, days, deg.):
  EPOCH=  2458399.5 ! 2018-Oct-08.00 (TDB)         Residual RMS= .20211        
   EC= .2253304451868516   QR= .9525668516843322   TP= 2458354.2554697809      
   OM= 188.9146441926015   W=  135.2493409557404   IN= 3.631837316097226       
  Equivalent ICRF heliocentric cartesian coordinates (au, au/d):
   X= 9.874490534016482E-01  Y= 2.414303737329446E-01  Z= 9.746991415829437E-02
  VX=-1.955204385424240E-03 VY= 1.722364762632024E-02 VZ= 6.197883797821973E-03
Asteroid physical parameters (km, seconds, rotational period in hours):        
   GM= n.a.                RAD= n.a.               ROTPER= n.a.                
   H= 26.6                 G= .150                 B-V= n.a.                   
                           ALBEDO= n.a.            STYP= n.a.                  
*******************************************************************************
 Date__(UT)__HR:MN     R.A._________(ICRF)_________DEC
******************************************************
$$SOE
 2018-Oct-27 08:06  m  02 21 54.724289 -05 04 18.38412
 2018-Oct-27 08:07  m  02 21 54.697418 -05 04 18.24496
 2018-Oct-27 08:08  m  02 21 54.670482 -05 04 18.10566
 2018-Oct-27 08:09  m  02 21 54.643484 -05 04 17.96622
 2018-Oct-27 08:10  m  02 21 54.616423 -05 04 17.82665
 2018-Oct-27 08:11  m  02 21 54.589300 -05 04 17.68693
 2018-Oct-27 08:12  m  02 21 54.562114 -05 04 17.54708
 2018-Oct-27 08:13  m  02 21 54.534868 -05 04 17.40708
 2018-Oct-27 08:14  m  02 21 54.507560 -05 04 17.26694
 2018-Oct-27 08:15  m  02 21 54.480192 -05 04 17.12667
 2018-Oct-27 08:16  m  02 21 54.452764 -05 04 16.98625
 2018-Oct-27 08:17  m  02 21 54.425277 -05 04 16.84569
 2018-Oct-27 08:18  m  02 21 54.397730 -05 04 16.70499
 2018-Oct-27 08:19  m  02 21 54.370124 -05 04 16.56415
 2018-Oct-27 08:20  m  02 21 54.342460 -05 04 16.42316
 2018-Oct-27 08:21  m  02 21 54.314738 -05 04 16.28203
 2018-Oct-27 08:22  m  02 21 54.286959 -05 04 16.14076
 2018-Oct-27 08:23  m  02 21 54.259122 -05 04 15.99935
 2018-Oct-27 08:24  m  02 21 54.231229 -05 04 15.85779
 2018-Oct-27 08:25  m  02 21 54.203280 -05 04 15.71609
 2018-Oct-27 08:26  m  02 21 54.175276 -05 04 15.57424
 2018-Oct-27 08:27  m  02 21 54.147216 -05 04 15.43225
 2018-Oct-27 08:28  m  02 21 54.119101 -05 04 15.29012
 2018-Oct-27 08:29  m  02 21 54.090932 -05 04 15.14784
 2018-Oct-27 08:30  m  02 21 54.062710 -05 04 15.00541
 2018-Oct-27 08:31  m  02 21 54.034433 -05 04 14.86284
 2018-Oct-27 08:32  m  02 21 54.006104 -05 04 14.72012
 2018-Oct-27 08:33  m  02 21 53.977723 -05 04 14.57726
 2018-Oct-27 08:34  m  02 21 53.949289 -05 04 14.43424
 2018-Oct-27 08:35  m  02 21 53.920804 -05 04 14.29108
 2018-Oct-27 08:36  m  02 21 53.892268 -05 04 14.14778
 2018-Oct-27 08:37  m  02 21 53.863681 -05 04 14.00433
 2018-Oct-27 08:38  m  02 21 53.835043 -05 04 13.86072
 2018-Oct-27 08:39  m  02 21 53.806357 -05 04 13.71697
 2018-Oct-27 08:40  m  02 21 53.777620 -05 04 13.57308
 2018-Oct-27 08:41  m  02 21 53.748835 -05 04 13.42903
 2018-Oct-27 08:42  m  02 21 53.720002 -05 04 13.28483
 2018-Oct-27 08:43  m  02 21 53.691121 -05 04 13.14049
 2018-Oct-27 08:44  m  02 21 53.662192 -05 04 12.99599
 2018-Oct-27 08:45  m  02 21 53.633216 -05 04 12.85135
 2018-Oct-27 08:46  m  02 21 53.604194 -05 04 12.70655
 2018-Oct-27 08:47  m  02 21 53.575126 -05 04 12.56161
 2018-Oct-27 08:48  m  02 21 53.546013 -05 04 12.41651
 2018-Oct-27 08:49  m  02 21 53.516854 -05 04 12.27127
 2018-Oct-27 08:50  m  02 21 53.487651 -05 04 12.12587
 2018-Oct-27 08:51  m  02 21 53.458403 -05 04 11.98032
 2018-Oct-27 08:52  m  02 21 53.429112 -05 04 11.83462
 2018-Oct-27 08:53  m  02 21 53.399778 -05 04 11.68877
 2018-Oct-27 08:54  m  02 21 53.370400 -05 04 11.54276
 2018-Oct-27 08:55  m  02 21 53.340981 -05 04 11.39661
 2018-Oct-27 08:56  m  02 21 53.311520 -05 04 11.25030
 2018-Oct-27 08:57  m  02 21 53.282018 -05 04 11.10383
 2018-Oct-27 08:58  m  02 21 53.252474 -05 04 10.95722
 2018-Oct-27 08:59  m  02 21 53.222891 -05 04 10.81045
 2018-Oct-27 09:00  m  02 21 53.193268 -05 04 10.66353
 2018-Oct-27 09:01  m  02 21 53.163605 -05 04 10.51645
 2018-Oct-27 09:02  m  02 21 53.133903 -05 04 10.36922
 2018-Oct-27 09:03  m  02 21 53.104163 -05 04 10.22184
 2018-Oct-27 09:04  m  02 21 53.074385 -05 04 10.07430
 2018-Oct-27 09:05  m  02 21 53.044569 -05 04 09.92661
 2018-Oct-27 09:06  m  02 21 53.014717 -05 04 09.77876
 2018-Oct-27 09:07  m  02 21 52.984828 -05 04 09.63076
 2018-Oct-27 09:08  m  02 21 52.954903 -05 04 09.48260
 2018-Oct-27 09:09  m  02 21 52.924943 -05 04 09.33428
 2018-Oct-27 09:10  m  02 21 52.894947 -05 04 09.18581
 2018-Oct-27 09:11  m  02 21 52.864917 -05 04 09.03719
 2018-Oct-27 09:12  m  02 21 52.834853 -05 04 08.88841
 2018-Oct-27 09:13  m  02 21 52.804755 -05 04 08.73947
 2018-Oct-27 09:14  m  02 21 52.774624 -05 04 08.59038
 2018-Oct-27 09:15  m  02 21 52.744461 -05 04 08.44113
 2018-Oct-27 09:16  m  02 21 52.714265 -05 04 08.29172
 2018-Oct-27 09:17  m  02 21 52.684038 -05 04 08.14216
 2018-Oct-27 09:18  m  02 21 52.653780 -05 04 07.99243
 2018-Oct-27 09:19  m  02 21 52.623491 -05 04 07.84256
 2018-Oct-27 09:20  m  02 21 52.593172 -05 04 07.69252
 2018-Oct-27 09:21  m  02 21 52.562823 -05 04 07.54233
 2018-Oct-27 09:22  m  02 21 52.532446 -05 04 07.39197
 2018-Oct-27 09:23  m  02 21 52.502039 -05 04 07.24146
 2018-Oct-27 09:24  m  02 21 52.471604 -05 04 07.09080
 2018-Oct-27 09:25  m  02 21 52.441142 -05 04 06.93997
 2018-Oct-27 09:26  m  02 21 52.410652 -05 04 06.78899
 2018-Oct-27 09:27  m  02 21 52.380136 -05 04 06.63784
 2018-Oct-27 09:28  m  02 21 52.349593 -05 04 06.48654
 2018-Oct-27 09:29  m  02 21 52.319025 -05 04 06.33508
 2018-Oct-27 09:30  m  02 21 52.288432 -05 04 06.18346
 2018-Oct-27 09:31  m  02 21 52.257814 -05 04 06.03168
 2018-Oct-27 09:32  m  02 21 52.227171 -05 04 05.87974
 2018-Oct-27 09:33  m  02 21 52.196505 -05 04 05.72765
 2018-Oct-27 09:34  m  02 21 52.165816 -05 04 05.57539
 2018-Oct-27 09:35  m  02 21 52.135104 -05 04 05.42297
 2018-Oct-27 09:36  m  02 21 52.104370 -05 04 05.27040
 2018-Oct-27 09:37  m  02 21 52.073614 -05 04 05.11766
 2018-Oct-27 09:38  m  02 21 52.042837 -05 04 04.96476
 2018-Oct-27 09:39  m  02 21 52.012039 -05 04 04.81171
 2018-Oct-27 09:40  m  02 21 51.981221 -05 04 04.65849
 2018-Oct-27 09:41  m  02 21 51.950383 -05 04 04.50511
 2018-Oct-27 09:42  m  02 21 51.919526 -05 04 04.35157
 2018-Oct-27 09:43  m  02 21 51.888650 -05 04 04.19787
 2018-Oct-27 09:44  m  02 21 51.857756 -05 04 04.04401
 2018-Oct-27 09:45  m  02 21 51.826845 -05 04 03.88999
 2018-Oct-27 09:46  m  02 21 51.795916 -05 04 03.73581
 2018-Oct-27 09:47  m  02 21 51.764970 -05 04 03.58147
 2018-Oct-27 09:48  m  02 21 51.734009 -05 04 03.42696
 2018-Oct-27 09:49  m  02 21 51.703031 -05 04 03.27230
 2018-Oct-27 09:50  m  02 21 51.672039 -05 04 03.11747
 2018-Oct-27 09:51  m  02 21 51.641031 -05 04 02.96249
 2018-Oct-27 09:52  m  02 21 51.610010 -05 04 02.80734
 2018-Oct-27 09:53  m  02 21 51.578974 -05 04 02.65203
 2018-Oct-27 09:54  m  02 21 51.547926 -05 04 02.49655
 2018-Oct-27 09:55  m  02 21 51.516865 -05 04 02.34092
 2018-Oct-27 09:56  m  02 21 51.485792 -05 04 02.18512
 2018-Oct-27 09:57  m  02 21 51.454707 -05 04 02.02917
 2018-Oct-27 09:58  m  02 21 51.423611 -05 04 01.87305
 2018-Oct-27 09:59  m  02 21 51.392504 -05 04 01.71676
 2018-Oct-27 10:00  m  02 21 51.361387 -05 04 01.56032
 2018-Oct-27 10:01  m  02 21 51.330261 -05 04 01.40371
 2018-Oct-27 10:02  m  02 21 51.299125 -05 04 01.24695
 2018-Oct-27 10:03  m  02 21 51.267981 -05 04 01.09002
 2018-Oct-27 10:04  m  02 21 51.236828 -05 04 00.93292
 2018-Oct-27 10:05  m  02 21 51.205668 -05 04 00.77567
 2018-Oct-27 10:06  m  02 21 51.174501 -05 04 00.61825
 2018-Oct-27 10:07  m  02 21 51.143328 -05 04 00.46067
 2018-Oct-27 10:08  m  02 21 51.112148 -05 04 00.30293
